     2.10           NAVIGATION DATA                         RINEX VERSION / TYPE
SPIDER V4,0,0,3554                      2015 04 15 02:41    PGM / RUN BY / DATE 
   1.4901D-08 -7.4506D-09 -5.9605D-08  1.1921D-07           ION ALPHA           
   1.2493D+05 -1.3107D+05  0.0000D+00 -6.5536D+04           ION BETA            
   -9.313225746155D-10-1.776356839400D-15   147456     1829 DELTA-UTC: A0,A1,T,W
    16                                                      LEAP SECONDS        
                                                            END OF HEADER       
15 15 01 23 16 00  0.0-2.280282787979D-04-2.273736754432D-12 0.000000000000D+00
    9.000000000000D+00 4.250000000000D+00 5.765954380621D-09 5.238860190755D-01
    3.594905138016D-07 7.043739897199D-03 3.693625330925D-06 5.153572210312D+03
    4.896000000000D+05 2.048909664154D-08 2.370666723282D+00 9.499490261078D-08
    9.341344152708D-01 2.892812500000D+02 3.646626941221D-01-8.903228376766D-09
   -2.289381045850D-10 1.000000000000D+00 1.828000000000D+03 0.000000000000D+00
    2.000000000000D+00 0.000000000000D+00-1.071020960808D-08 9.000000000000D+00
    4.896000000000D+05 0.000000000000D+00
28 15 01 23 18 00  0.0 4.145065322518D-04 2.728484105319D-12 0.000000000000D+00
    7.400000000000D+01 1.042812500000D+02 3.738727105684D-09-3.082063924654D+00
    5.319714546204D-06 1.973235153127D-02 7.495284080505D-06 5.153689197540D+03
    4.968000000000D+05 1.825392246246D-07-1.706316591369D+00-9.313225746155D-09
    9.880771129435D-01 2.471875000000D+02-1.676974708865D+00-7.503169641154D-09
    4.160887467908D-10 1.000000000000D+00 1.828000000000D+03 0.000000000000D+00
    2.000000000000D+00 0.000000000000D+00-1.117587089539D-08 7.400000000000D+01
    4.968000000000D+05 0.000000000000D+00
 5 15 01 23 18 00  0.0-2.888930030167D-04 5.229594535194D-12 0.000000000000D+00
    7.400000000000D+01 6.890625000000D+01 4.989850754811D-09-3.128603147953D+00
    3.518536686897D-06 4.034500452690D-03 1.047924160957D-05 5.153761054993D+03
    4.968000000000D+05-3.725290298462D-08 1.361084596077D+00-5.587935447693D-09
    9.463875230562D-01 1.710625000000D+02 4.222943240594D-01-8.192484024505D-09
    5.510943923426D-10 1.000000000000D+00 1.828000000000D+03 0.000000000000D+00
    2.000000000000D+00 0.000000000000D+00-1.071020960808D-08 7.400000000000D+01
    4.968000000000D+05 0.000000000000D+00
 7 15 01 23 17 59 44.0 4.340978339314D-04 3.296918293927D-12 0.000000000000D+00
    1.100000000000D+01-1.471875000000D+01 4.080884075108D-09-3.584173871228D-01
   -9.369105100632D-07 7.979957386851D-03 1.101009547710D-05 5.153745134354D+03
    4.967840000000D+05 7.636845111847D-08-2.796963222551D+00 1.303851604462D-07
    9.718050985545D-01 1.735625000000D+02-2.750673321453D+00-7.944259472481D-09
   -5.250218593211D-10 1.000000000000D+00 1.828000000000D+03 0.000000000000D+00
    2.000000000000D+00 0.000000000000D+00-1.117587089539D-08 1.100000000000D+01
    4.967840000000D+05 0.000000000000D+00
10 15 01 23 18 00  0.0-1.600631512702D-04-1.705302565824D-12 0.000000000000D+00
    6.000000000000D+01 7.143750000000D+01 5.032352312639D-09-2.783815107336D+00
    3.416091203690D-06 1.451464544516D-02 9.963288903236D-06 5.153657341003D+03
    4.968000000000D+05 1.117587089539D-07 1.376913650575D+00-1.657754182816D-07
    9.411704441211D-01 1.749062500000D+02 9.184881831081D-01-8.100694337543D-09
    5.918103784808D-10 1.000000000000D+00 1.828000000000D+03 0.000000000000D+00
    2.800000000000D+00 0.000000000000D+00-3.259629011154D-09 6.000000000000D+01
    4.968000000000D+05 0.000000000000D+00
13 15 01 23 18 00  0.0-8.151121437550D-05-3.524291969370D-12 0.000000000000D+00
    7.800000000000D+01-1.606250000000D+01 4.797700015047D-09 3.817485561711D-01
   -8.512288331985D-07 5.349186947569D-03 5.060806870461D-06 5.153680328369D+03
    4.968000000000D+05-6.146728992462D-08 2.524366119307D+00-4.284083843231D-08
    9.751283188543D-01 2.900625000000D+02 2.067469120353D+00-8.367134540777D-09
   -3.114415392247D-10 1.000000000000D+00 1.828000000000D+03 0.000000000000D+00
    2.000000000000D+00 0.000000000000D+00-1.164153218269D-08 7.800000000000D+01
    4.968000000000D+05 0.000000000000D+00
15 15 01 23 18 00  0.0-2.280441112816D-04-2.273736754432D-12 0.000000000000D+00
    3.300000000000D+01 4.906250000000D+00 5.831671590073D-09 1.574097196632D+00
    4.861503839493D-07 7.043898804113D-03 4.148110747337D-06 5.153572839737D+03
    4.968000000000D+05-4.842877388000D-08 2.370602719153D+00 1.154839992523D-07
    9.341327007308D-01 2.871250000000D+02 3.647034715006D-01-8.881798407856D-09
   -2.285809458380D-10 1.000000000000D+00 1.828000000000D+03 0.000000000000D+00
    2.000000000000D+00 0.000000000000D+00-1.071020960808D-08 3.300000000000D+01
    4.968000000000D+05 0.000000000000D+00
30 15 01 23 18 00  0.0-8.626934140921D-05 4.547473508865D-13 0.000000000000D+00
    7.000000000000D+01-6.906250000000D+00 4.308036594125D-09-4.160801026064D-01
   -5.103647708893D-07 9.723866824061D-04 1.184083521366D-05 5.153622259140D+03
    4.968000000000D+05 3.911554813385D-08-2.745913730649D+00 1.303851604462D-08
    9.574876114766D-01 1.509687500000D+02 3.088890772311D+00-7.932830392576D-09
   -4.718053725483D-10 1.000000000000D+00 1.828000000000D+03 0.000000000000D+00
    2.000000000000D+00 0.000000000000D+00 3.259629011154D-09 7.000000000000D+01
    4.968000000000D+05 0.000000000000D+00
24 15 01 23 17 59 44.0-4.225550219417D-05-5.684341886081D-13 0.000000000000D+00
    5.100000000000D+01-2.646875000000D+01 4.547689336221D-09 5.037925159519D-01
   -1.350417733192D-06 2.948460401967D-03 1.109950244427D-05 5.153692626953D+03
    4.967840000000D+05 5.774199962616D-08-2.835678189424D+00 2.607703208923D-08
    9.550511067864D-01 1.576250000000D+02 2.535257863323D-01-8.108195004297D-09
   -6.085967840797D-10 1.000000000000D+00 1.828000000000D+03 0.000000000000D+00
    2.000000000000D+00 0.000000000000D+00 2.328306436539D-09 5.100000000000D+01
    4.967840000000D+05 0.000000000000D+00
17 15 01 23 18 00  0.0-1.516528427601D-04-2.160049916711D-12 0.000000000000D+00
    9.900000000000D+01-5.346875000000D+01 4.524117080962D-09 2.414259597386D+00
   -2.790242433548D-06 1.003008510452D-02 2.698972821236D-06 5.153702810287D+03
    4.968000000000D+05 6.519258022308D-08-6.829298878682D-01-1.955777406693D-07
    9.711824747683D-01 3.315625000000D+02-2.047712692573D+00-8.234628978698D-09
   -4.750197804548D-11 1.000000000000D+00 1.828000000000D+03 0.000000000000D+00
    2.000000000000D+00 0.000000000000D+00-1.071020960808D-08 9.900000000000D+01
    4.968000000000D+05 0.000000000000D+00
13 15 01 23 17 59 44.0-8.151074871421D-05-3.524291969370D-12 0.000000000000D+00
    1.200000000000D+01-1.606250000000D+01 4.797700015047D-09 3.794147205346D-01
   -8.512288331985D-07 5.349182058126D-03 5.060806870461D-06 5.153680330276D+03
    4.967840000000D+05-6.146728992462D-08 2.524366259747D+00-4.284083843231D-08
    9.751283320205D-01 2.900625000000D+02 2.067469196425D+00-8.367134540777D-09
   -3.114415392247D-10 1.000000000000D+00 1.828000000000D+03 0.000000000000D+00
    2.000000000000D+00 0.000000000000D+00-1.164153218269D-08 1.200000000000D+01
    4.967840000000D+05 0.000000000000D+00
18 15 01 23 18 00  0.0 3.743730485439D-04 2.728484105319D-12 0.000000000000D+00
    8.100000000000D+01 5.684375000000D+01 5.310578199413D-09-2.380410190713D+00
    2.868473529816D-06 1.561941520777D-02 1.049786806107D-05 5.153759042740D+03
    4.968000000000D+05 2.644956111908D-07 1.350591819079D+00-3.725290298462D-09
    9.249636875817D-01 1.529375000000D+02-1.994881446911D+00-8.199984691259D-09
    6.703850807810D-10 1.000000000000D+00 1.828000000000D+03 0.000000000000D+00
    2.000000000000D+00 0.000000000000D+00-1.117587089539D-08 8.100000000000D+01
    4.968000000000D+05 0.000000000000D+00
12 15 01 23 17 59 44.0 2.636634744704D-04 3.069544618484D-12 0.000000000000D+00
    6.000000000000D+00 9.637500000000D+01 3.907305590189D-09-8.090816923572D-01
    4.947185516357D-06 5.192077485844D-03 8.843839168549D-06 5.153747852325D+03
    4.967840000000D+05 1.713633537292D-07-1.730463569851D+00 6.332993507385D-08
    9.889390598871D-01 2.238437500000D+02 5.031357359544D-01-7.942116297954D-09
    4.018024524211D-10 1.000000000000D+00 1.828000000000D+03 0.000000000000D+00
    2.000000000000D+00 0.000000000000D+00-1.257285475731D-08 6.000000000000D+00
    4.967840000000D+05 0.000000000000D+00
24 15 01 23 20 00  0.0-4.225969314575D-05-5.684341886081D-13 0.000000000000D+00
    8.000000000000D+01-1.903125000000D+01 4.595905878091D-09 1.556257879107D+00
   -8.679926395416D-07 2.949067042209D-03 1.123361289501D-05 5.153693395615D+03
    5.040000000000D+05 8.195638656616D-08-2.835737036767D+00 1.117587089539D-07
    9.550468438431D-01 1.589062500000D+02 2.535631799814D-01-8.116409766501D-09
   -5.457370111372D-10 1.000000000000D+00 1.828000000000D+03 0.000000000000D+00
    2.000000000000D+00 0.000000000000D+00 2.328306436539D-09 8.000000000000D+01
    5.040000000000D+05 0.000000000000D+00
 5 15 01 23 20 00  0.0-2.888552844524D-04 5.229594535194D-12 0.000000000000D+00
    7.600000000000D+01 6.512500000000D+01 4.968421229989D-09-2.078689084670D+00
    3.105029463768D-06 4.035034449771D-03 9.952113032341D-06 5.153759359360D+03
    5.040000000000D+05-2.048909664154D-08 1.361025438595D+00-2.980232238770D-08
    9.463914978046D-01 1.800625000000D+02 4.225110407436D-01-8.209627644362D-09
    5.632377342302D-10 1.000000000000D+00 1.828000000000D+03 0.000000000000D+00
    2.000000000000D+00 0.000000000000D+00-1.071020960808D-08 7.600000000000D+01
    5.040000000000D+05 0.000000000000D+00
